{
  "type": "FeatureCollection",
  "features": [
    {
      "type": "Feature",
      "properties": {
        "norad_id": 34765,
        "name": "IRIDIUM 33 DEB",
        "group": "iridium-33-debris",
        "lat": -81.29448445065492,
        "lon": -122.79559632113492,
        "alt_km": 757.7080645817096,
        "timestamp": "2025-12-13T08:49:16.077079+00:00",
        "meta_object_name": "IRIDIUM 33 DEB",
        "meta_object_id": "1997-051LJ",
        "meta_epoch": "2025-12-12T22:10:07.180608",
        "meta_mean_motion": 14.40466393,
        "meta_eccentricity": 0.00154572,
        "meta_inclination": 86.3397,
        "meta_ra_of_asc_node": 32.6828,
        "meta_arg_of_pericenter": 210.8108,
        "meta_mean_anomaly": 270.909,
        "meta_ephemeris_type": 0,
        "meta_classification_type": "U",
        "meta_norad_cat_id": 34765,
        "meta_element_set_no": 999,
        "meta_rev_at_epoch": 87616,
        "meta_bstar": 0.00063476555,
        "meta_mean_motion_dot": 2.039e-05,
        "meta_mean_motion_ddot": 0,
        "tle_line1": "1 34765U 97051LJ  25346.92369422  .00002039  00000+0  63477-3 0  9997",
        "tle_line2": "2 34765  86.3397  32.6828 0015457 210.8108 270.9090 14.40466393876169"
      },
      "geometry": {
        "type": "Point",
        "coordinates": [
          -122.79559632113492,
          -81.29448445065492
        ]
      }
    },
    {
      "type": "Feature",
      "properties": {
        "norad_id": 34833,
        "name": "IRIDIUM 33 DEB",
        "group": "iridium-33-debris",
        "lat": 33.94788710016477,
        "lon": 53.15666003935518,
        "alt_km": 708.590937129904,
        "timestamp": "2025-12-13T08:49:16.077089+00:00",
        "meta_object_name": "IRIDIUM 33 DEB",
        "meta_object_id": "1997-051MH",
        "meta_epoch": "2025-12-12T16:42:34.131168",
        "meta_mean_motion": 14.52378929,
        "meta_eccentricity": 0.00217937,
        "meta_inclination": 86.3927,
        "meta_ra_of_asc_node": 51.012,
        "meta_arg_of_pericenter": 98.7029,
        "meta_mean_anomaly": 27.8511,
        "meta_ephemeris_type": 0,
        "meta_classification_type": "U",
        "meta_norad_cat_id": 34833,
        "meta_element_set_no": 999,
        "meta_rev_at_epoch": 87714,
        "meta_bstar": 0.0012180425,
        "meta_mean_motion_dot": 4.994e-05,
        "meta_mean_motion_ddot": 0,
        "tle_line1": "1 34833U 97051MH  25346.69622837  .00004994  00000+0  12180-2 0  9995",
        "tle_line2": "2 34833  86.3927  51.0120 0021793  98.7029  27.8511 14.52378929877145"
      },
      "geometry": {
        "type": "Point",
        "coordinates": [
          53.15666003935518,
          33.94788710016477
        ]
      }
    },
    {
      "type": "Feature",
      "properties": {
        "norad_id": 34870,
        "name": "IRIDIUM 33 DEB",
        "group": "iridium-33-debris",
        "lat": 60.264319967035334,
        "lon": -39.71712680506993,
        "alt_km": 640.4027303506191,
        "timestamp": "2025-12-13T08:49:16.077114+00:00",
        "meta_object_name": "IRIDIUM 33 DEB",
        "meta_object_id": "1997-051MQ",
        "meta_epoch": "2025-12-12T05:10:32.154816",
        "meta_mean_motion": 14.76416829,
        "meta_eccentricity": 0.00161138,
        "meta_inclination": 86.3104,
        "meta_ra_of_asc_node": 314.324,
        "meta_arg_of_pericenter": 184.3674,
        "meta_mean_anomaly": 237.8107,
        "meta_ephemeris_type": 0,
        "meta_classification_type": "U",
        "meta_norad_cat_id": 34870,
        "meta_element_set_no": 999,
        "meta_rev_at_epoch": 88903,
        "meta_bstar": 0.0023634796,
        "meta_mean_motion_dot": 0.00016508,
        "meta_mean_motion_ddot": 0,
        "tle_line1": "1 34870U 97051MQ  25346.21564994  .00016508  00000+0  23635-2 0  9994",
        "tle_line2": "2 34870  86.3104 314.3240 0016113 184.3674 237.8107 14.76416829889032"
      },
      "geometry": {
        "type": "Point",
        "coordinates": [
          -39.71712680506993,
          60.264319967035334
        ]
      }
    },
    {
      "type": "Feature",
      "properties": {
        "norad_id": 34896,
        "name": "IRIDIUM 33 DEB",
        "group": "iridium-33-debris",
        "lat": -58.87593050396689,
        "lon": 152.50863914732602,
        "alt_km": 664.8851799591584,
        "timestamp": "2025-12-13T08:49:16.077127+00:00",
        "meta_object_name": "IRIDIUM 33 DEB",
        "meta_object_id": "1997-051MY",
        "meta_epoch": "2025-12-12T17:48:22.643136",
        "meta_mean_motion": 14.66279209,
        "meta_eccentricity": 0.00240874,
        "meta_inclination": 86.3285,
        "meta_ra_of_asc_node": 326.6847,
        "meta_arg_of_pericenter": 215.1277,
        "meta_mean_anomaly": 323.4993,
        "meta_ephemeris_type": 0,
        "meta_classification_type": "U",
        "meta_norad_cat_id": 34896,
        "meta_element_set_no": 999,
        "meta_rev_at_epoch": 87619,
        "meta_bstar": 0.0014275546,
        "meta_mean_motion_dot": 7.927e-05,
        "meta_mean_motion_ddot": 0,
        "tle_line1": "1 34896U 97051MY  25346.74192874  .00007927  00000+0  14276-2 0  9990",
        "tle_line2": "2 34896  86.3285 326.6847 0024087 215.1277 323.4993 14.66279209876196"
      },
      "geometry": {
        "type": "Point",
        "coordinates": [
          152.50863914732602,
          -58.87593050396689
        ]
      }
    },
    {
      "type": "Feature",
      "properties": {
        "norad_id": 34926,
        "name": "IRIDIUM 33 DEB",
        "group": "iridium-33-debris",
        "lat": -60.97545571055288,
        "lon": 0.9800493613312076,
        "alt_km": 665.2821453195975,
        "timestamp": "2025-12-13T08:49:16.077138+00:00",
        "meta_object_name": "IRIDIUM 33 DEB",
        "meta_object_id": "1997-051NF",
        "meta_epoch": "2025-12-12T12:20:13.285824",
        "meta_mean_motion": 14.54404213,
        "meta_eccentricity": 0.00756259,
        "meta_inclination": 86.1328,
        "meta_ra_of_asc_node": 8.3778,
        "meta_arg_of_pericenter": 293.6501,
        "meta_mean_anomaly": 219.03,
        "meta_ephemeris_type": 0,
        "meta_classification_type": "U",
        "meta_norad_cat_id": 34926,
        "meta_element_set_no": 999,
        "meta_rev_at_epoch": 86453,
        "meta_bstar": 0.0080603055,
        "meta_mean_motion_dot": 0.0003576,
        "meta_mean_motion_ddot": 0,
        "tle_line1": "1 34926U 97051NF  25346.51404266  .00035760  00000+0  80603-2 0  9993",
        "tle_line2": "2 34926  86.1328   8.3778 0075625 293.6501 219.0300 14.54404213864537"
      },
      "geometry": {
        "type": "Point",
        "coordinates": [
          0.9800493613312076,
          -60.97545571055288
        ]
      }
    },
    {
      "type": "Feature",
      "properties": {
        "norad_id": 34985,
        "name": "IRIDIUM 33 DEB",
        "group": "iridium-33-debris",
        "lat": 35.513581103330836,
        "lon": 59.208305283859275,
        "alt_km": 764.3171371907556,
        "timestamp": "2025-12-13T08:49:16.077149+00:00",
        "meta_object_name": "IRIDIUM 33 DEB",
        "meta_object_id": "1997-051NR",
        "meta_epoch": "2025-12-12T23:13:51.153888",
        "meta_mean_motion": 14.42012529,
        "meta_eccentricity": 0.00207583,
        "meta_inclination": 86.37,
        "meta_ra_of_asc_node": 56.7821,
        "meta_arg_of_pericenter": 219.0302,
        "meta_mean_anomaly": 263.5766,
        "meta_ephemeris_type": 0,
        "meta_classification_type": "U",
        "meta_norad_cat_id": 34985,
        "meta_element_set_no": 999,
        "meta_rev_at_epoch": 87178,
        "meta_bstar": 0.0010455492,
        "meta_mean_motion_dot": 3.457e-05,
        "meta_mean_motion_ddot": 0,
        "tle_line1": "1 34985U 97051NR  25346.96795317  .00003457  00000+0  10455-2 0  9993",
        "tle_line2": "2 34985  86.3700  56.7821 0020758 219.0302 263.5766 14.42012529871789"
      },
      "geometry": {
        "type": "Point",
        "coordinates": [
          59.208305283859275,
          35.513581103330836
        ]
      }
    },
    {
      "type": "Feature",
      "properties": {
        "norad_id": 35051,
        "name": "IRIDIUM 33 DEB",
        "group": "iridium-33-debris",
        "lat": -19.15505820067789,
        "lon": 7.309057488055,
        "alt_km": 740.9228584541079,
        "timestamp": "2025-12-13T08:49:16.077160+00:00",
        "meta_object_name": "IRIDIUM 33 DEB",
        "meta_object_id": "1997-051NX",
        "meta_epoch": "2025-12-11T08:47:57.045408",
        "meta_mean_motion": 14.47588957,
        "meta_eccentricity": 0.00106566,
        "meta_inclination": 86.3243,
        "meta_ra_of_asc_node": 9.4603,
        "meta_arg_of_pericenter": 94.8899,
        "meta_mean_anomaly": 265.3522,
        "meta_ephemeris_type": 0,
        "meta_classification_type": "U",
        "meta_norad_cat_id": 35051,
        "meta_element_set_no": 999,
        "meta_rev_at_epoch": 86976,
        "meta_bstar": 0.001042299,
        "meta_mean_motion_dot": 3.858e-05,
        "meta_mean_motion_ddot": 0,
        "tle_line1": "1 35051U 97051NX  25345.36663247  .00003858  00000+0  10423-2 0  9997",
        "tle_line2": "2 35051  86.3243   9.4603 0010656  94.8899 265.3522 14.47588957869768"
      },
      "geometry": {
        "type": "Point",
        "coordinates": [
          7.309057488055,
          -19.15505820067789
        ]
      }
    }
  ]
}